SCD 1                   
1 22490U 93009B   26165.62533624  .00000369  00000+0  49930-4 0  9995
2 22490  24.9680 223.3964 0042141 110.7073  23.6278 14.46118084760747
TECHSAT 1B (GO-32)      
1 25397U 98043D   26166.51904378  .00000030  00000+0  33240-4 0  9996
2 25397  99.0067 159.2356 0000970 166.6144 193.5060 14.24428091451092
SCD 2                   
1 25504U 98060A   26166.45887399  .00000355  00000+0  48192-4 0  9993
2 25504  24.9951  82.8156 0016970 104.8665  56.4534 14.45525235460071
DLR-TUBSAT              
1 25757U 99029B   26166.50228532  .00000059  00000+0  26310-4 0  9992
2 25757  98.6695 161.9509 0014156   0.3787 359.7416 14.52426483433008
TERRA                   
1 25994U 99068A   26166.51950580  .00000322  00000+0  74567-4 0  9994
2 25994  97.9457 216.1319 0001449 195.5293 270.7841 14.61101880409368
MAROC-TUBSAT            
1 27004U 01056D   26166.46744824 -.00000031  00000+0  18117-4 0  9991
2 27004  99.8080 343.2946 0020276 145.5742 269.4903 13.70262425225953
AQUA                    
1 27424U 02022A   26166.48950925  .00000648  00000+0  13866-3 0  9992
2 27424  98.4276 135.7384 0001166  53.3864  56.6507 14.62155771283024
SHIYAN-1 (SY-1)         
1 28220U 04012A   26166.48732926  .00010415  00000+0  32183-3 0  9993
2 28220  97.8694 244.4449 0005745  38.5995 321.5656 15.33722326210836
AURA                    
1 28376U 04026A   26166.47973127  .00000662  00000+0  14369-3 0  9998
2 28376  98.3417 122.9188 0001227  74.1489 285.9847 14.61326820165969
IRS-P5 (CARTOSAT-1)     
1 28649U 05017A   26166.53480038  .00001268  00000+0  13347-3 0  9991
2 28649  97.5308 189.6742 0002627  81.8223 278.3294 14.91045505143570
SINAH 1                 
1 28893U 05043D   26166.48235610  .00000267  00000+0  60062-4 0  9994
2 28893  98.2857 300.7943 0013147 282.6674  77.3058 14.64156673100271
RESURS-DK 1             
1 29228U 06021A   26166.51498462  .00002198  00000+0  12951-3 0  9992
2 29228  69.9340 343.8813 0006860 293.1585  66.8858 15.13212840102325
ARIRANG-2 (KOMPSAT-2)   
1 29268U 06031A   26166.52122697  .00000386  00000+0  80885-4 0  9991
2 29268  97.8299 351.0483 0015916  79.4358   5.9318 14.64659789 61232
LAPAN-TUBSAT            
1 29709U 07001A   26166.50355829  .00001141  00000+0  13722-3 0  9997
2 29709  98.1336 165.6893 0011719 184.5712 175.5398 14.85952373 50903
HAIYANG-1B              
1 31113U 07010A   26166.53664193  .00000065  00000+0  40480-4 0  9995
2 31113  98.3494 148.4458 0012919 201.3718 158.6928 14.31026508   409
COSMO-SKYMED 1          
1 31598U 07023A   26166.53091321  .00002217  00000+0  19742-3 0  9990
2 31598  97.8839 358.3728 0001180  98.9996 261.1359 14.97092005 29542
TERRASAR-X              
1 31698U 07026A   26165.55699353  .00000380  00000+0  21289-4 0  9993
2 31698  97.4461 173.3010 0001800  95.8158 264.3281 15.19148207 52821
WORLDVIEW-1 (WV-1)      
1 32060U 07041A   26166.51958036  .00004879  00000+0  20284-3 0  9997
2 32060  97.3879 286.2868 0002416  26.0414 334.0945 15.24251013 42622
YAOGAN-3                
1 32289U 07055A   26166.51646272  .00002817  00000+0  29221-3 0  9991
2 32289  97.8154 196.4109 0002022  83.4745 276.6704 14.90780818  5628
COSMO-SKYMED 2          
1 32376U 07059A   26166.54079341  .00000338  00000+0  49073-4 0  9996
2 32376  97.8885 350.1626 0001373  86.5201 273.6169 14.82153831  1761
RADARSAT-2              
1 32382U 07061A   26166.49845263  .00000306  00000+0  13556-3 0  9995
2 32382  98.5772 173.4547 0001306  81.8748 278.2583 14.29982317965714
CARTOSAT-2A             
1 32783U 08021A   26166.55836213  .00001014  00000+0  14305-3 0  9999
2 32783  97.7638 215.3225 0013117 113.5025 246.7567 14.79237682978566
HUANJING 1A (HJ-1A)     
1 33320U 08041A   26166.54805875  .00000799  00000+0  10183-3 0  9997
2 33320  97.6674 152.4496 0019816 139.6975 220.5713 14.83983211958167
HUANJING 1B (HJ-1B)     
1 33321U 08041B   26166.51638874  .00000752  00000+0  97142-4 0  9998
2 33321  97.6509 155.5958 0035865 186.5354 173.5397 14.83313643958167
GEOEYE 1                
1 33331U 08042A   26166.44408509  .00000408  00000+0  85506-4 0  9991
2 33331  98.1236 240.3974 0005454  73.8619 286.3184 14.64724320949899
THEOS                   
1 33396U 08049A   26166.48928831  .00000450  00000+0  23113-3 0  9990
2 33396  98.5577 223.8280 0001228  80.2323 279.8993 14.20134467917728
COSMO-SKYMED 3          
1 33412U 08054A   26166.54954053  .00003763  00000+0  25555-3 0  9999
2 33412  97.8286  25.0928 0014329 272.8018  87.1568 15.06945227956699
YAOGAN-4                
1 33446U 08061A   26166.41306097  .00000840  00000+0  10926-3 0  9998
2 33446  97.9308  99.9364 0015746  77.6769 282.6206 14.83196943945409
GOSAT (IBUKI)           
1 33492U 09002A   26166.29743926  .00000989  00000+0  18281-3 0  9993
2 33492  98.0887 277.4022 0001573  85.7370 274.4014 14.67540244931184
DEIMOS-1                
1 35681U 09041A   26166.49069508  .00000858  00000+0  13396-3 0  9994
2 35681  97.7393 323.7916 0001491 131.9966 228.1370 14.75237728906637
DUBAISAT-1              
1 35682U 09041B   26166.32543656  .00000600  00000+0  96433-4 0  9997
2 35682  98.0049 299.6036 0011693  79.0353 281.2171 14.75119995904824
