OBJECT_NAME,OBJECT_ID,EPOCH,MEAN_MOTION,ECCENTRICITY,INCLINATION,RA_OF_ASC_NODE,ARG_OF_PERICENTER,MEAN_ANOMALY,EPHEMERIS_TYPE,CLASSIFICATION_TYPE,NORAD_CAT_ID,ELEMENT_SET_NO,REV_AT_EPOCH,BSTAR,MEAN_MOTION_DOT,MEAN_MOTION_DDOT
SCD 1,1993-009B,2026-06-14T15:00:29.051136,14.46118084,.0042141,24.9680,223.3964,110.7073,23.6278,0,U,22490,999,76074,.49930256E-4,.369E-5,0
TECHSAT 1B (GO-32),1998-043D,2026-06-15T12:27:25.382592,14.24428091,.000097,99.0067,159.2356,166.6144,193.5060,0,U,25397,999,45109,.3324E-4,.3E-6,0
SCD 2,1998-060A,2026-06-15T11:00:46.712736,14.45525235,.001697,24.9951,82.8156,104.8665,56.4534,0,U,25504,999,46007,.48192E-4,.355E-5,0
DLR-TUBSAT,1999-029B,2026-06-15T12:03:17.451648,14.52426483,.0014156,98.6695,161.9509,0.3787,359.7416,0,U,25757,999,43300,.2631E-4,.59E-6,0
TERRA,1999-068A,2026-06-15T12:28:05.301120,14.61101880,.0001449,97.9457,216.1319,195.5293,270.7841,0,U,25994,999,40936,.74567E-4,.322E-5,0
MAROC-TUBSAT,2001-056D,2026-06-15T11:13:07.527936,13.70262425,.0020276,99.8080,343.2946,145.5742,269.4903,0,U,27004,999,22595,.18117E-4,-.31E-6,0
AQUA,2002-022A,2026-06-15T11:44:53.599200,14.62155771,.0001166,98.4276,135.7384,53.3864,56.6507,0,U,27424,999,28302,.13866E-3,.648E-5,0
SHIYAN-1 (SY-1),2004-012A,2026-06-15T11:41:45.248064,15.33722326,.0005745,97.8694,244.4449,38.5995,321.5656,0,U,28220,999,21083,.32183E-3,.10415E-3,0
AURA,2004-026A,2026-06-15T11:30:48.781728,14.61326820,.0001227,98.3417,122.9188,74.1489,285.9847,0,U,28376,999,16596,.14369E-3,.662E-5,0
IRS-P5 (CARTOSAT-1),2005-017A,2026-06-15T12:50:06.752832,14.91045505,.0002627,97.5308,189.6742,81.8223,278.3294,0,U,28649,999,14357,.13347E-3,.1268E-4,0
SINAH 1,2005-043D,2026-06-15T11:34:35.567040,14.64156673,.0013147,98.2857,300.7943,282.6674,77.3058,0,U,28893,999,10027,.60062E-4,.267E-5,0
RESURS-DK 1,2006-021A,2026-06-15T12:21:34.671168,15.13212840,.000686,69.9340,343.8813,293.1585,66.8858,0,U,29228,999,10232,.12951E-3,.2198E-4,0
ARIRANG-2 (KOMPSAT-2),2006-031A,2026-06-15T12:30:34.010208,14.64659789,.0015916,97.8299,351.0483,79.4358,5.9318,0,U,29268,999,6123,.80885E-4,.386E-5,0
LAPAN-TUBSAT,2007-001A,2026-06-15T12:05:07.436256,14.85952373,.0011719,98.1336,165.6893,184.5712,175.5398,0,U,29709,999,5090,.13722E-3,.1141E-4,0
HAIYANG-1B,2007-010A,2026-06-15T12:52:45.862752,14.31026508,.0012919,98.3494,148.4458,201.3718,158.6928,0,U,31113,999,40,.4048E-4,.65E-6,0
COSMO-SKYMED 1,2007-023A,2026-06-15T12:44:30.901344,14.97092005,.000118,97.8839,358.3728,98.9996,261.1359,0,U,31598,999,2954,.19742E-3,.2217E-4,0
TERRASAR-X,2007-026A,2026-06-14T13:22:04.240992,15.19148207,.00018,97.4461,173.3010,95.8158,264.3281,0,U,31698,999,5282,.21289E-4,.38E-5,0
WORLDVIEW-1 (WV-1),2007-041A,2026-06-15T12:28:11.743104,15.24251013,.0002416,97.3879,286.2868,26.0414,334.0945,0,U,32060,999,4262,.20284E-3,.4879E-4,0
YAOGAN-3,2007-055A,2026-06-15T12:23:42.379008,14.90780818,.0002022,97.8154,196.4109,83.4745,276.6704,0,U,32289,999,562,.29221E-3,.2817E-4,0
COSMO-SKYMED 2,2007-059A,2026-06-15T12:58:44.550624,14.82153831,.0001373,97.8885,350.1626,86.5201,273.6169,0,U,32376,999,176,.49073E-4,.338E-5,0
RADARSAT-2,2007-061A,2026-06-15T11:57:46.307232,14.29982317,.0001306,98.5772,173.4547,81.8748,278.2583,0,U,32382,999,96571,.13556E-3,.306E-5,0
CARTOSAT-2A,2008-021A,2026-06-15T13:24:02.488032,14.79237682,.0013117,97.7638,215.3225,113.5025,246.7567,0,U,32783,999,97856,.14305E-3,.1014E-4,0
HUANJING 1A (HJ-1A),2008-041A,2026-06-15T13:09:12.276000,14.83983211,.0019816,97.6674,152.4496,139.6975,220.5713,0,U,33320,999,95816,.10183E-3,.799E-5,0
HUANJING 1B (HJ-1B),2008-041B,2026-06-15T12:23:35.987136,14.83313643,.0035865,97.6509,155.5958,186.5354,173.5397,0,U,33321,999,95816,.97142E-4,.752E-5,0
GEOEYE 1,2008-042A,2026-06-15T10:39:28.951776,14.64724320,.0005454,98.1236,240.3974,73.8619,286.3184,0,U,33331,999,94989,.85506E-4,.408E-5,0
THEOS,2008-049A,2026-06-15T11:44:34.509984,14.20134467,.0001228,98.5577,223.8280,80.2323,279.8993,0,U,33396,999,91772,.23113E-3,.45E-5,0
COSMO-SKYMED 3,2008-054A,2026-06-15T13:11:20.301792,15.06945227,.0014329,97.8286,25.0928,272.8018,87.1568,0,U,33412,999,95669,.25555E-3,.3763E-4,0
YAOGAN-4,2008-061A,2026-06-15T09:54:48.467808,14.83196943,.0015746,97.9308,99.9364,77.6769,282.6206,0,U,33446,999,94540,.10926E-3,.84E-5,0
GOSAT (IBUKI),2009-002A,2026-06-15T07:08:18.752064,14.67540244,.0001573,98.0887,277.4022,85.7370,274.4014,0,U,33492,999,93118,.18281E-3,.989E-5,0
DEIMOS-1,2009-041A,2026-06-15T11:46:36.054912,14.75237728,.0001491,97.7393,323.7916,131.9966,228.1370,0,U,35681,999,90663,.13396E-3,.858E-5,0
DUBAISAT-1,2009-041B,2026-06-15T07:48:37.718784,14.75119995,.0011693,98.0049,299.6036,79.0353,281.2171,0,U,35682,999,90482,.96433E-4,.6E-5,0
